[{"OBJECT_NAME":"ONEWEB-0259","OBJECT_ID":"2021-060L","EPOCH":"2026-03-09T22:07:39.256032","MEAN_MOTION":13.16593786,"ECCENTRICITY":0.00017722,"INCLINATION":87.9005,"RA_OF_ASC_NODE":248.5251,"ARG_OF_PERICENTER":98.8623,"MEAN_ANOMALY":261.2709,"EPHEMERIS_TYPE":0,"CLASSIFICATION_TYPE":"U","NORAD_CAT_ID":48977,"ELEMENT_SET_NO":999,"REV_AT_EPOCH":22656,"BSTAR":0.00014223059,"MEAN_MOTION_DOT":6.7e-7,"MEAN_MOTION_DDOT":0},{"OBJECT_NAME":"COSMOS 839 DEB","OBJECT_ID":"1976-067J","EPOCH":"2026-03-09T23:01:25.256640","MEAN_MOTION":12.18829728,"ECCENTRICITY":0.06844794,"INCLINATION":65.835,"RA_OF_ASC_NODE":271.7191,"ARG_OF_PERICENTER":191.4787,"MEAN_ANOMALY":245.7481,"EPHEMERIS_TYPE":0,"CLASSIFICATION_TYPE":"U","NORAD_CAT_ID":10415,"ELEMENT_SET_NO":999,"REV_AT_EPOCH":21095,"BSTAR":0.00043139042,"MEAN_MOTION_DOT":4.0e-7,"MEAN_MOTION_DDOT":0}]
